HORYU-4                 
1 41340U 16012D   20253.72506220  .00000402  00000-0  23572-4 0  9997
2 41340  31.0047 155.0961 0014066 264.8305  95.0725 15.01550715250556
E-ST@R-II               
1 41459U 16025D   20253.81400729 -.00000018  00000-0  38940-5 0  9999
2 41459  98.1109   8.2416 0162886 287.9457  70.4104 15.06609981240149
AAUSAT 4                
1 41460U 16025E   20253.81983960  .00000586  00000-0  32891-4 0  9991
2 41460  98.1089  10.8872 0151680 275.6446  82.7479 15.08999258240361
BEESAT-4                
1 41619U 16040W   20253.20054748  .00001080  00000-0  47170-4 0  9996
2 41619  97.3120 310.7278 0009522 239.5358 120.4940 15.24206686222158
CANX-7                  
1 41788U 16059F   20253.80636271  .00006649  00000-0  89293-3 0  9993
2 41788  98.2585 343.8579 0025176  41.8472 318.4587 14.79440736212289
RAVAN                   
1 41849U 16067B   20253.87389849  .00000615  00000-0  56365-4 0  9995
2 41849  97.9417   5.1971 0007310 336.8912  23.1980 14.98634276209263
CELTEE 1                
1 41850U 16067C   20253.81370495 -.00000422  00000-0 -31204-4 0  9991
2 41850  97.9337   2.6106 0008273 336.7900  23.2947 14.97223067209123
OPTICUBE 04             
1 41851U 16067D   20253.89263913 -.00000212  00000-0 -13176-4 0  9991
2 41851  97.9316   2.2632 0008337 336.5059  23.5780 14.96947557209118
AEROCUBE 8D             
1 41852U 16067E   20253.84227517  .00000418  00000-0  41683-4 0  9997
2 41852  97.9322   2.0529 0008726 337.2759  22.8075 14.96948822209087
AEROCUBE 8C             
1 41853U 16067F   20253.80897071 -.00000289  00000-0 -19838-4 0  9997
2 41853  97.9328   1.9159 0009463 339.8340  20.2506 14.96919552209072
PROMETHEUS 2-1          
1 41854U 16067G   20253.89356863  .00000032  00000-0  80227-5 0  9991
2 41854  97.9326   2.3854 0009664 335.4481  24.6279 14.97256589209103
PROMETHEUS 2-3          
1 41855U 16067H   20253.89347518  .00000029  00000-0  78057-5 0  9993
2 41855  97.9330   2.4223 0009866 335.6821  24.3933 14.97265619209102
INS-1B                  
1 41954U 17008G   20253.67037628  .00001016  00000-0  43584-4 0  9996
2 41954  97.3470 316.5387 0009182  15.3911 344.7604 15.24966238198202
BGUSAT                  
1 41999U 17008BD  20253.70843570  .00001756  00000-0  67318-4 0  9992
2 41999  97.3595 321.2051 0008219  24.7589 335.4043 15.27817323197818
DIDO-2                  
1 42000U 17008BE  20253.84841913  .00000691  00000-0  30841-4 0  9998
2 42000  97.3477 317.1863 0009170  33.1131 327.0679 15.24607487197626
PEASSS                  
1 42015U 17008BV  20253.82745506  .00000875  00000-0  37031-4 0  9995
2 42015  97.3506 318.9412 0007156  38.7489 321.4261 15.25782585198218
AL-FARABI 1             
1 42016U 17008BW  20253.66980676  .00001171  00000-0  47363-4 0  9996
2 42016  97.3537 319.9735 0006978  38.9007 321.2733 15.26671295198376
NAYIF-1 (EO-88)         
1 42017U 17008BX  20253.84286589  .00001193  00000-0  48159-4 0  9997
2 42017  97.3531 320.1539 0006995  37.4146 322.7579 15.26714301198420
UCLSAT                  
1 42765U 17036A   20253.87918251  .00000986  00000-0  43864-4 0  9996
2 42765  97.2930 305.8245 0013000  89.3203 270.9524 15.23696632179438
LITUANICASAT-2          
1 42768U 17036D   20253.69166452  .00001685  00000-0  71455-4 0  9991
2 42768  97.2990 305.7541 0016266  80.8128 279.4949 15.24360466178678
AALTO-1                 
1 42775U 17036L   20253.67807169  .00000614  00000-0  29809-4 0  9991
2 42775  97.2905 303.2044 0015550  84.5952 275.7058 15.21955078178489
URSA MAIOR              
1 42776U 17036M   20253.65700475  .00000663  00000-0  31815-4 0  9996
2 42776  97.2917 303.5056 0015342  84.3665 275.9320 15.22147570178493
COMPASS 2               
1 42777U 17036N   20253.85490067  .00001286  00000-0  55607-4 0  9999
2 42777  97.2977 306.2977 0013897  81.6049 278.6763 15.24157160178658
DIAMOND RED             
1 42783U 17036U   20253.84692207  .00000773  00000-0  35753-4 0  9995
2 42783  97.2930 304.9727 0013727  91.5423 268.7387 15.22979033178594
PEGASUS                 
1 42784U 17036V   20253.65912163  .00000881  00000-0  39884-4 0  9990
2 42784  97.2935 305.2658 0013569  91.0099 269.2693 15.23376736178593
DIAMOND GREEN           
1 42785U 17036W   20253.64862552  .00000686  00000-0  32070-4 0  9999
2 42785  97.2933 304.8182 0013637  92.7570 267.5228 15.22973700178551
DIAMOND BLUE            
1 42786U 17036X   20253.84491632  .00000767  00000-0  35475-4 0  9991
2 42786  97.2932 305.0036 0013477  92.3195 267.9585 15.22978997178668
NUDTSAT                 
1 42787U 17036Y   20253.96985552  .00001653  00000-0  69424-4 0  9990
2 42787  97.2982 307.1647 0012684  81.7398 278.5278 15.24769514178573
SUCHAI                  
1 42788U 17036Z   20253.84917817  .00001088  00000-0  47750-4 0  9997
2 42788  97.2943 306.1190 0013108  88.8127 271.4612 15.23958143178732
SKCUBE                  
1 42789U 17036AA  20253.70734139  .00001006  00000-0  44614-4 0  9993
2 42789  97.2938 305.8070 0012996  89.5647 270.7079 15.23786161178625
VZLUSAT-1               
1 42790U 17036AB  20253.82844971  .00001366  00000-0  57882-4 0  9994
2 42790  97.2965 307.0203 0012469  87.0251 273.2414 15.24750241178709
ROBUSTA-1B              
1 42792U 17036AD  20253.65049089  .00001054  00000-0  46321-4 0  9994
2 42792  97.2941 306.0298 0012576  90.0330 270.2348 15.23984786178647
CICERO 6                
1 42793U 17036AE  20253.80645291  .00000682  00000-0  31628-4 0  9999
2 42793  97.2914 305.4761 0011912  91.9532 268.3069 15.23272146178708
D-SAT                   
1 42794U 17036AF  20253.78396438  .00000162  00000-0  19115-4 0  9993
2 42794  97.4884 282.2414 0127699  83.6399 277.9345 14.91315697175267
CORVUS BC2              
1 42846U 17042X   20253.80278648  .00000150  00000-0  19908-4 0  9990
2 42846  97.5102 133.5042 0009734   6.3146 353.8195 14.92134118171985
CORVUS BC1              
1 42847U 17042Y   20253.79274476 -.00000036  00000-0  17028-5 0  9990
2 42847  97.5105 133.6798 0009371   5.8827 354.2501 14.92235926171980
MIRATA                  
1 43015U 17073C   20253.66139541  .00000568  00000-0  48656-4 0  9990
2 43015  97.7124 162.6657 0253763 133.6067 228.6511 14.79774846151672
MAKERSAT 0              
1 43016U 17073D   20253.71609414  .00000397  00000-0  35639-4 0  9995
2 43016  97.7163 162.8811 0256688 134.7051 227.5385 14.79306548151660
DELLINGR (RBLE)         
1 43021U 98067NJ  20253.35912878  .00013785  00000-0  10339-3 0  9998
2 43021  51.6335 210.3727 0002074  56.3783 303.7413 15.72952282160069
AEROCUBE 7B (OCSD B)    
1 43042U 17071F   20253.77433719  .00002782  00000-0  68755-4 0  9996
2 43042  51.6387  12.6404 0004435   1.3036 358.7961 15.44168461155405
AEROCUBE 7C (OCSD C)    
1 43043U 17071G   20253.77913293  .00002811  00000-0  69425-4 0  9995
2 43043  51.6387  12.6877 0004703   4.9735 355.1297 15.44143145155374
CHEFSAT                 
1 43044U 17071H   20253.74867964  .00006961  00000-0  13176-3 0  9997
2 43044  51.6385 354.7969 0004540  10.9588 349.1499 15.49574417155616
ASGARDIA 1              
1 43049U 17071N   20253.77111787  .00002714  00000-0  67305-4 0  9996
2 43049  51.6400  11.9681 0002565  24.7884 335.3225 15.44153798155387
ISARA                   
1 43050U 17071P   20253.66120475  .00005474  00000-0  10975-3 0  9996
2 43050  51.6371 358.5685 0002588  23.6360 336.4746 15.48378979155555
PROPCUBE 2 (FAUNA)      
1 43052U 17071R   20253.53735865  .00003549  00000-0  83830-4 0  9991
2 43052  51.6392  11.1730 0002509  22.0331 338.0763 15.44650689155360
CORVUS BC3              
1 43118U 18004H   20253.76495066  .00000634  00000-0  29536-4 0  9997
2 43118  97.4375 323.3265 0011870 113.3728 246.8758 15.23480071147834
MICROMAS-2A             
1 43131U 18004W   20253.67932439  .00001522  00000-0  62811-4 0  9992
2 43131  97.4430 325.2831 0010723 111.6332 248.6049 15.25542268147932
SPACEBEE-4              
1 43139U 18004AE  20253.77011679  .00002077  00000-0  81228-4 0  9994
2 43139  97.4464 326.7680 0010097 111.9108 248.3206 15.26951807148020
SPACEBEE-3              
1 43140U 18004AF  20253.85907998  .00002664  00000-0  10035-3 0  9992
2 43140  97.4483 327.6828 0009797 110.2001 250.0293 15.27944063148085
SPACEBEE-2              
1 43141U 18004AG  20253.62457756  .00002939  00000-0  10932-3 0  9991
2 43141  97.4497 327.7634 0009737 110.2375 249.9912 15.28281085148067
SPACEBEE-1              
1 43142U 18004AH  20253.83362920  .00003149  00000-0  11555-3 0  9999
2 43142  97.4503 328.2859 0009688 109.4026 250.8261 15.28677462148100
CICERO 7                
1 43143U 18004AJ  20253.81009523  .00001361  00000-0  56471-4 0  9996
2 43143  97.4406 325.5751 0008868 118.3277 241.8857 15.25559934147975
GOMX-4B                 
1 43196U 18015E   20253.31300244  .00000392  00000-0  18890-4 0  9991
2 43196  97.4488  21.2631 0019108 164.5947 195.5876 15.24375489144676
GOMX-4A                 
1 43197U 18015F   20253.85620760  .00000750  00000-0  33222-4 0  9993
2 43197  97.4484  21.9227 0019302 163.4869 316.7381 15.24618705144778
UBAKUSAT                
1 43467U 98067NQ  20253.34489128  .00042538  00000-0  22186-3 0  9999
2 43467  51.6332 208.5927 0002869  64.4388 295.6910 15.80447176133357
CUBERRT                 
1 43546U 98067NU  20253.88576631  .00014304  00000-0  86964-4 0  9997
2 43546  51.6315 206.9974 0002802  67.4985 292.6312 15.77788735123552
TEMPEST-D               
1 43547U 98067NV  20253.42108388  .00005245  00000-0  60878-4 0  9998
2 43547  51.6353 247.6371 0005070  20.7276 339.3923 15.63667039122658
RAINCUBE                
1 43548U 98067NW  20253.38074384  .00038661  00000-0  21157-3 0  9996
2 43548  51.6294 217.0575 0005148  67.5791 292.5756 15.79423158123505
HALOSAT                 
1 43549U 98067NX  20253.37560247  .00035290  00000-0  20610-3 0  9992
2 43549  51.6329 218.6492 0004882  70.8913 289.2616 15.78021407123044
